[{"OBJECT_NAME":"STARLINK-3705","OBJECT_ID":"2022-029R","EPOCH":"2026-03-09T07:20:57.655968","MEAN_MOTION":15.08829187,"ECCENTRICITY":0.00014692,"INCLINATION":53.217,"RA_OF_ASC_NODE":80.8433,"ARG_OF_PERICENTER":90.242,"MEAN_ANOMALY":269.874,"EPHEMERIS_TYPE":0,"CLASSIFICATION_TYPE":"U","NORAD_CAT_ID":52103,"ELEMENT_SET_NO":999,"REV_AT_EPOCH":22072,"BSTAR":-0.00012207149,"MEAN_MOTION_DOT":-2.23e-5,"MEAN_MOTION_DDOT":0},{"OBJECT_NAME":"CZ-4 DEB","OBJECT_ID":"2006-046H","EPOCH":"2026-03-09T02:48:41.934528","MEAN_MOTION":15.12857559,"ECCENTRICITY":0.00451328,"INCLINATION":97.5575,"RA_OF_ASC_NODE":118.4736,"ARG_OF_PERICENTER":295.6188,"MEAN_ANOMALY":89.8626,"EPHEMERIS_TYPE":0,"CLASSIFICATION_TYPE":"U","NORAD_CAT_ID":35375,"ELEMENT_SET_NO":999,"REV_AT_EPOCH":5626,"BSTAR":0.00023308037,"MEAN_MOTION_DOT":4.131e-5,"MEAN_MOTION_DDOT":0}]
